[ {"name": "STARLINK-32015", "line1": "1 60111U 24117W   26147.08356783 -.00000564  00000+0 -69242-5 0  9998", "line2": "2 60111  53.1615  32.6528 0001266  86.3496 273.7650 15.30188993108892"}, {"name": "STARLINK-32024", "line1": "1 60112U 24117X   26146.96560437 -.00000544  00000+0 -62586-5 0  9990", "line2": "2 60112  53.1615  33.3390 0001180  78.3220 281.7913 15.30187677108876"}, {"name": "STARLINK-11201 [DTC]", "line1": "1 60113U 24118A   26147.28702900  .00002877  00000+0  28608-4 0  9996", "line2": "2 60113  53.1591 194.1204 0000665  45.5902 314.5170 15.69697209110333"}, {"name": "STARLINK-11198 [DTC]", "line1": "1 60114U 24118B   26147.28211425  .00001017  00000+0  13258-4 0  9994", "line2": "2 60114  53.1580 194.0841 0001070  95.7707 264.3433 15.69702600110335"}, {"name": "STARLINK-11112 [DTC]", "line1": "1 60115U 24118C   26147.27721091 -.00000292  00000+0  24484-5 0  9998", "line2": "2 60115  53.1593 194.0534 0001276  70.6628 289.4528 15.69699674110330"}, {"name": "STARLINK-11210 [DTC]", "line1": "1 60116U 24118D   26147.27231422 -.00002517  00000+0 -15949-4 0  9991", "line2": "2 60116  53.1584 194.0195 0001235  38.1532 321.9573 15.69675811110331"}, {"name": "STARLINK-11203 [DTC]", "line1": "1 60117U 24118E   26146.43970631 -.00003013  00000+0 -20022-4 0  9991", "line2": "2 60117  53.1583 198.0685 0001468  43.5225 316.5908 15.69699925110206"}, {"name": "STARLINK-11177 [DTC]", "line1": "1 60118U 24118F   26147.13515369 -.00001033  00000+0 -36734-5 0  9991", "line2": "2 60118  53.1592 194.5836 0001049  77.9021 282.2114 15.69705300110311"}, {"name": "STARLINK-11127 [DTC]", "line1": "1 60119U 24118G   26147.13024184  .00000250  00000+0  69258-5 0  9997", "line2": "2 60119  53.1584 194.5508 0001274  72.1168 287.9988 15.69714770110310"}, {"name": "STARLINK-11164 [DTC]", "line1": "1 60120U 24118H   26147.25267666 -.00008755  00000+0 -67385-4 0  9994", "line2": "2 60120  53.1582 193.8891 0001374  68.5576 291.5588 15.69740394110330"}, {"name": "STARLINK-11119 [DTC]", "line1": "1 60121U 24118J   26147.30163998 -.00002757  00000+0 -17908-4 0  9996", "line2": "2 60121  53.1588 193.4800 0001129  60.5547 299.5584 15.69702848110348"}, {"name": "STARLINK-11157 [DTC]", "line1": "1 60122U 24118K   26147.30654476 -.00001732  00000+0 -94482-5 0  9998", "line2": "2 60122  53.1586 193.5115 0001065  71.6838 288.4295 15.69701639110345"}, {"name": "STARLINK-11162 [DTC]", "line1": "1 60123U 24118L   26147.29672470  .00000206  00000+0  65604-5 0  9998", "line2": "2 60123  53.1592 193.4435 0000977  93.1816 266.9313 15.69711187110344"}, {"name": "STARLINK-11161 [DTC]", "line1": "1 60124U 24118M   26147.29192891  .00004407  00000+0  41240-4 0  9999", "line2": "2 60124  53.1583 194.1464 0000539  37.4796 322.6260 15.69688632110335"}, {"name": "STARLINK-11160 [DTC]", "line1": "1 60125U 24118N   26146.42007962 -.00000465  00000+0  10215-5 0  9998", "line2": "2 60125  53.1594 197.9353 0001181  85.0519 275.0634 15.69693544110202"}, {"name": "STARLINK-31846", "line1": "1 60126U 24118P   26146.85081659 -.00000461  00000+0 -34464-5 0  9990", "line2": "2 60126  53.1616  23.6360 0001342  96.7169 263.3984 15.30189648107667"}, {"name": "STARLINK-31840", "line1": "1 60127U 24118Q   26147.04276405 -.00001154  00000+0 -25428-4 0  9997", "line2": "2 60127  53.1617  22.7050 0001207  92.3724 267.7416 15.31694387107697"}, {"name": "STARLINK-31813", "line1": "1 60128U 24118R   26147.08467389 -.00001671  00000+0 -42101-4 0  9996", "line2": "2 60128  53.1608  22.2573 0000987  90.4653 269.6462 15.31709168107705"}, {"name": "STARLINK-31845", "line1": "1 60129U 24118S   26146.85134273 -.00001361  00000+0 -33846-4 0  9996", "line2": "2 60129  53.1618  21.5038 0001337  87.9464 272.1690 15.30189859107694"}, {"name": "STARLINK-31838", "line1": "1 60130U 24118T   26147.02875999 -.00009536  00000+0 -29559-3 0  9992", "line2": "2 60130  53.1619  22.6159 0000992  82.5245 277.5870 15.31737114107690"}, {"name": "STARLINK-31785", "line1": "1 60131U 24118U   26147.08000751  .00001965  00000+0  75031-4 0  9998", "line2": "2 60131  53.1620  22.2244 0001162  93.1141 266.9993 15.31709315107709"}, {"name": "STARLINK-31792", "line1": "1 60132U 24118V   26146.96508941 -.00002751  00000+0 -80874-4 0  9996", "line2": "2 60132  53.1616  20.7509 0001303 104.2440 255.8705 15.30171944107714"}, {"name": "STARLINK-32043", "line1": "1 60135U 24120A   26146.84845104 -.00000951  00000+0 -19996-4 0  9991", "line2": "2 60135  53.1609 316.8124 0001024  99.4240 260.6877 15.30192239108348"}, {"name": "STARLINK-32112", "line1": "1 60136U 24120B   26146.74577967  .00200483  00000+0  61519-2 0  9996", "line2": "2 60136  53.1609 317.5976 0003545 154.0614 206.0566 15.32462942108404"}, {"name": "STARLINK-32050", "line1": "1 60137U 24120C   26146.86586391 -.00004123  00000+0 -11110-3 0  9999", "line2": "2 60137  53.1628 316.9259 0001338  87.9264 272.1892 15.34356132108340"}, {"name": "STARLINK-32025", "line1": "1 60138U 24120D   26147.00002315  .00021211  00000+0  72677-3 0  9996", "line2": "2 60138  53.1578 315.9253 0001318  67.9224 140.7141 15.30175057  5838"}, {"name": "STARLINK-31694", "line1": "1 60140U 24120F   26146.87799434  .00000847  00000+0  40712-4 0  9996", "line2": "2 60140  53.1615 316.9987 0001143  77.2382 282.8746 15.30194947108420"}, {"name": "STARLINK-32036", "line1": "1 60141U 24120G   26147.25002315  .00038356  00000+0  13018-2 0  9998", "line2": "2 60141  53.1594 315.2598 0001105  92.5507 163.8890 15.30167435  5790"}, {"name": "STARLINK-32031", "line1": "1 60142U 24120H   26146.90151034 -.00000631  00000+0 -75458-5 0  9999", "line2": "2 60142  53.1620 316.4351 0000919  85.9268 274.1840 15.34389804108439"}, {"name": "STARLINK-32027", "line1": "1 60143U 24120J   26146.76201748 -.00001972  00000+0 -54463-4 0  9993", "line2": "2 60143  53.1620 316.9445 0000833  67.2504 292.8584 15.30207910108413"}, {"name": "STARLINK-32033", "line1": "1 60144U 24120K   26146.90532532 -.00000905  00000+0 -18441-4 0  9999", "line2": "2 60144  53.1616 316.4613 0001129  89.0203 271.0927 15.30193376108351"}, {"name": "STARLINK-32029", "line1": "1 60145U 24120L   26147.25002315  .00143632  00000+0  42132-2 0  9995", "line2": "2 60145  53.1594 314.9639 0003626  29.5450  15.6265 15.34158632  5864"}, {"name": "STARLINK-32127", "line1": "1 60146U 24120M   26146.89054481 -.00000036  00000+0  10921-4 0  9990", "line2": "2 60146  53.1615 316.3651 0001039  78.2637 281.8481 15.30200420108357"}, {"name": "STARLINK-32019", "line1": "1 60147U 24120N   26146.76836182 -.00000187  00000+0  57906-5 0  9995", "line2": "2 60147  53.1614 317.0256 0000915  79.0457 281.0647 15.30195435108330"}, {"name": "STARLINK-32021", "line1": "1 60148U 24120P   26146.83262201  .00000291  00000+0  21153-4 0  9998", "line2": "2 60148  53.1623 306.7625 0001190  83.3618 276.7519 15.31705931108562"}, {"name": "STARLINK-32022", "line1": "1 60149U 24120Q   26146.85161467  .00000027  00000+0  13054-4 0  9991", "line2": "2 60149  53.1617 316.8303 0001176  95.3947 264.7188 15.30191360108421"}, {"name": "STARLINK-32014", "line1": "1 60150U 24120R   26146.84211433  .00000382  00000+0  25035-4 0  9997", "line2": "2 60150  53.1617 316.7709 0000942  87.6239 272.4870 15.30195503108348"}, {"name": "STARLINK-32004", "line1": "1 60151U 24120S   26146.84528424 -.00000420  00000+0 -20674-5 0  9999", "line2": "2 60151  53.1608 316.7910 0000987  96.0338 264.0775 15.30191075108426"}, {"name": "STARLINK-32147", "line1": "1 60152U 24120T   26146.87010242  .00000492  00000+0  26286-4 0  9998", "line2": "2 60152  53.1620 316.9495 0001227  79.2258 280.8882 15.33548459108344"}, {"name": "STARLINK-32131", "line1": "1 60153U 24120U   26146.84478479  .00000788  00000+0  34457-4 0  9993", "line2": "2 60153  53.1620 316.7875 0000922  98.9525 261.1582 15.34392970108425"}, {"name": "STARLINK-32145", "line1": "1 60154U 24120V   26147.25002315  .00117930  00000+0  35590-2 0  9997", "line2": "2 60154  53.1584 314.8186 0001040 112.5173   4.7697 15.33388698  5653"}, {"name": "STARLINK-32137", "line1": "1 60155U 24120W   26146.78947886  .00000475  00000+0  28170-4 0  9999", "line2": "2 60155  53.1617 317.1533 0001174 116.9575 243.1546 15.30191790108338"}, {"name": "STARLINK-32048", "line1": "1 60156U 24120X   26146.20458210  .00024246  00000+0  82316-3 0  9998", "line2": "2 60156  53.1612 319.9019 0003843 239.6772 120.3849 15.30389464108249"}, {"name": "STARLINK-32129", "line1": "1 60157U 24120Y   26146.85951512  .00006827  00000+0  21299-3 0  9991", "line2": "2 60157  53.1612 316.8810 0000967  79.8996 280.2116 15.34401677108429"}, {"name": "STARLINK-11168 [DTC]", "line1": "1 60183U 24124A   26147.24778372 -.00000982  00000+0 -32419-5 0  9995", "line2": "2 60183  53.1606 133.9085 0001428 121.9521 238.1636 15.69698311110062"}, {"name": "STARLINK-11187 [DTC]", "line1": "1 60184U 24124B   26147.24288307 -.00004168  00000+0 -29569-4 0  9991", "line2": "2 60184  53.1591 133.8802 0001101  66.6293 293.4840 15.69706360108872"}, {"name": "STARLINK-11180 [DTC]", "line1": "1 60185U 24124C   26147.23798337 -.00001898  00000+0 -10826-4 0  9993", "line2": "2 60185  53.1586 133.8453 0001032  94.8451 265.2685 15.69688040108879"}, {"name": "STARLINK-11197 [DTC]", "line1": "1 60186U 24124D   26147.23307407 -.00001429  00000+0 -69455-5 0  9991", "line2": "2 60186  53.1589 133.8144 0001135  73.1308 286.9834 15.69698183108870"}, {"name": "STARLINK-11194 [DTC]", "line1": "1 60187U 24124E   26147.22816537 -.00002623  00000+0 -16806-4 0  9998", "line2": "2 60187  53.1591 133.7809 0001125  74.9346 285.1796 15.69701466108878"}, {"name": "STARLINK-11189 [DTC]", "line1": "1 60188U 24124F   26147.22336122 -.00000507  00000+0  67060-6 0  9994", "line2": "2 60188  53.1580 134.4801 0000955  74.1648 285.9475 15.69697803108864"}, {"name": "STARLINK-11183 [DTC]", "line1": "1 60189U 24124G   26147.21845772 -.00001800  00000+0 -10002-4 0  9990", "line2": "2 60189  53.1587 134.4515 0001217  77.2908 282.8246 15.69699013108866"}]